start=new Date('2021-12-22T00:00:00.000Z').valueOf();
sats=[{"COUNTRY_CODE":"US","SEMIMAJOR_AXIS":"6925.364","FILE":"3246637","CLASSIFICATION_TYPE":"U","ECCENTRICITY":"0.00028840","ELEMENT_SET_NO":"999","EPHEMERIS_TYPE":"0","MEAN_MOTION":"15.06394932","OBJECT_ID":"2020-055M","PERIAPSIS":"545.232","NORAD_CAT_ID":"46038","EPOCH":"2021-12-21T19:51:04.844160","MEAN_ELEMENT_THEORY":"SGP4","GP_ID":"192153628","ARG_OF_PERICENTER":"83.8049","MEAN_ANOMALY":"276.3268","TLE_LINE2":"2 46038  53.0540 194.8520 0002884  83.8049 276.3268 15.06394932 76439","SITE":"AFETR","DECAY_DATE":null,"REV_AT_EPOCH":"7643","OBJECT_NAME":"STARLINK-1567","TLE_LINE1":"1 46038U 20055M   21355.82713940 -.00000362  00000-0 -53470-5 0  9990","PERIOD":"95.592","MEAN_MOTION_DDOT":"0.0000000000000","REF_FRAME":"TEME","OBJECT_TYPE":"PAYLOAD","INCLINATION":"53.0540","BSTAR":"-0.00000534700000","LAUNCH_DATE":"2020-08-07","TIME_SYSTEM":"UTC","RCS_SIZE":"LARGE","CENTER_NAME":"EARTH","RA_OF_ASC_NODE":"194.8520","APOAPSIS":"549.226","MEAN_MOTION_DOT":"-0.00000362"},{"TLE_LINE2":"2 46039  53.0539 195.1169 0002523  83.0218 277.1058 15.06397038 76932","SITE":"AFETR","MEAN_ANOMALY":"277.1058","ARG_OF_PERICENTER":"83.0218","GP_ID":"192176136","EPOCH":"2021-12-21T18:26:08.914272","MEAN_ELEMENT_THEORY":"SGP4","NORAD_CAT_ID":"46039","PERIAPSIS":"545.475","OBJECT_ID":"2020-055N","MEAN_MOTION":"15.06397038","EPHEMERIS_TYPE":"0","ELEMENT_SET_NO":"999","ECCENTRICITY":"0.00025230","CLASSIFICATION_TYPE":"U","FILE":"3246784","SEMIMAJOR_AXIS":"6925.358","COUNTRY_CODE":"US","MEAN_MOTION_DOT":"-0.00000330","APOAPSIS":"548.970","RA_OF_ASC_NODE":"195.1169","CENTER_NAME":"EARTH","RCS_SIZE":"LARGE","TIME_SYSTEM":"UTC","LAUNCH_DATE":"2020-08-07","BSTAR":"-0.00000320190000","INCLINATION":"53.0539","OBJECT_TYPE":"PAYLOAD","REF_FRAME":"TEME","MEAN_MOTION_DDOT":"0.0000000000000","PERIOD":"95.592","TLE_LINE1":"1 46039U 20055N   21355.76815873 -.00000330  00000-0 -32019-5 0  9993","OBJECT_NAME":"STARLINK-1569","REV_AT_EPOCH":"7693","DECAY_DATE":null},{"NORAD_CAT_ID":"46040","PERIAPSIS":"545.587","OBJECT_ID":"2020-055P","MEAN_MOTION":"15.06403705","EPHEMERIS_TYPE":"0","ELEMENT_SET_NO":"999","SITE":"AFETR","TLE_LINE2":"2 46040  53.0531 194.9873 0002332  77.9287 282.1963 15.06403705 76908","MEAN_ANOMALY":"282.1963","ARG_OF_PERICENTER":"77.9287","GP_ID":"192176386","MEAN_ELEMENT_THEORY":"SGP4","EPOCH":"2021-12-21T19:08:36.171168","COUNTRY_CODE":"US","ECCENTRICITY":"0.00023320","CLASSIFICATION_TYPE":"U","FILE":"3246784","SEMIMAJOR_AXIS":"6925.337","TIME_SYSTEM":"UTC","LAUNCH_DATE":"2020-08-07","BSTAR":"0.00017476000000","INCLINATION":"53.0531","MEAN_MOTION_DOT":"0.00002322","APOAPSIS":"548.817","RA_OF_ASC_NODE":"194.9873","CENTER_NAME":"EARTH","RCS_SIZE":"LARGE","OBJECT_NAME":"STARLINK-1576","REV_AT_EPOCH":"7690","DECAY_DATE":null,"OBJECT_TYPE":"PAYLOAD","REF_FRAME":"TEME","MEAN_MOTION_DDOT":"0.0000000000000","PERIOD":"95.592","TLE_LINE1":"1 46040U 20055P   21355.79764087  .00002322  00000-0  17476-3 0  9997"},{"ECCENTRICITY":"0.00023580","CLASSIFICATION_TYPE":"U","SEMIMAJOR_AXIS":"6925.375","FILE":"3246784","COUNTRY_CODE":"US","SITE":"AFETR","TLE_LINE2":"2 46041  53.0545 194.6771 0002358  79.2773 280.8482 15.06391227 76929","MEAN_ANOMALY":"280.8482","GP_ID":"192177135","ARG_OF_PERICENTER":"79.2773","EPOCH":"2021-12-21T20:48:06.133824","MEAN_ELEMENT_THEORY":"SGP4","PERIAPSIS":"545.607","NORAD_CAT_ID":"46041","MEAN_MOTION":"15.06391227","OBJECT_ID":"2020-055Q","EPHEMERIS_TYPE":"0","ELEMENT_SET_NO":"999","REF_FRAME":"TEME","OBJECT_TYPE":"PAYLOAD","PERIOD":"95.593","MEAN_MOTION_DDOT":"0.0000000000000","TLE_LINE1":"1 46041U 20055Q   21355.86673766 -.00000350  00000-0 -45830-5 0  9997","REV_AT_EPOCH":"7692","OBJECT_NAME":"STARLINK-1580","DECAY_DATE":null,"MEAN_MOTION_DOT":"-0.00000350","APOAPSIS":"548.873","CENTER_NAME":"EARTH","RA_OF_ASC_NODE":"194.6771","RCS_SIZE":"LARGE","LAUNCH_DATE":"2020-08-07","TIME_SYSTEM":"UTC","INCLINATION":"53.0545","BSTAR":"-0.00000458300000"},{"SEMIMAJOR_AXIS":"6925.324","FILE":"3246784","CLASSIFICATION_TYPE":"U","ECCENTRICITY":"0.00024840","COUNTRY_CODE":"US","MEAN_ELEMENT_THEORY":"SGP4","EPOCH":"2021-12-21T20:22:55.325280","GP_ID":"192177388","ARG_OF_PERICENTER":"75.7087","MEAN_ANOMALY":"284.4178","SITE":"AFETR","TLE_LINE2":"2 46042  53.0533 194.7527 0002484  75.7087 284.4178 15.06407936 76912","ELEMENT_SET_NO":"999","EPHEMERIS_TYPE":"0","MEAN_MOTION":"15.06407936","OBJECT_ID":"2020-055R","PERIAPSIS":"545.469","NORAD_CAT_ID":"46042","TLE_LINE1":"1 46042U 20055R   21355.84925145  .00002821  00000-0  20821-3 0  9991","PERIOD":"95.592","MEAN_MOTION_DDOT":"0.0000000000000","REF_FRAME":"TEME","OBJECT_TYPE":"PAYLOAD","DECAY_DATE":null,"REV_AT_EPOCH":"7691","OBJECT_NAME":"STARLINK-1581","RCS_SIZE":"LARGE","CENTER_NAME":"EARTH","RA_OF_ASC_NODE":"194.7527","APOAPSIS":"548.909","MEAN_MOTION_DOT":"0.00002821","INCLINATION":"53.0533","BSTAR":"0.00020821000000","LAUNCH_DATE":"2020-08-07","TIME_SYSTEM":"UTC"},{"APOAPSIS":"548.990","MEAN_MOTION_DOT":"-0.00000118","RCS_SIZE":"LARGE","RA_OF_ASC_NODE":"195.0823","CENTER_NAME":"EARTH","BSTAR":"0.00001103300000","INCLINATION":"53.0544","TIME_SYSTEM":"UTC","LAUNCH_DATE":"2020-08-07","OBJECT_TYPE":"PAYLOAD","REF_FRAME":"TEME","TLE_LINE1":"1 46043U 20055S   21355.77553141 -.00000118  00000-0  11033-4 0  9991","MEAN_MOTION_DDOT":"0.0000000000000","PERIOD":"95.592","OBJECT_NAME":"STARLINK-1582","REV_AT_EPOCH":"7693","DECAY_DATE":null,"MEAN_ANOMALY":"277.4155","TLE_LINE2":"2 46043  53.0544 195.0823 0002549  82.7124 277.4155 15.06396372 76930","SITE":"AFETR","EPOCH":"2021-12-21T18:36:45.913824","MEAN_ELEMENT_THEORY":"SGP4","ARG_OF_PERICENTER":"82.7124","GP_ID":"192175637","OBJECT_ID":"2020-055S","MEAN_MOTION":"15.06396372","NORAD_CAT_ID":"46043","PERIAPSIS":"545.459","ELEMENT_SET_NO":"999","EPHEMERIS_TYPE":"0","ECCENTRICITY":"0.00025490","FILE":"3246784","SEMIMAJOR_AXIS":"6925.360","CLASSIFICATION_TYPE":"U","COUNTRY_CODE":"US"},{"TIME_SYSTEM":"UTC","LAUNCH_DATE":"2020-08-07","BSTAR":"0.00002765600000","INCLINATION":"53.0536","RA_OF_ASC_NODE":"195.0047","CENTER_NAME":"EARTH","RCS_SIZE":"LARGE","MEAN_MOTION_DOT":"0.00000130","APOAPSIS":"549.045","DECAY_DATE":null,"OBJECT_NAME":"STARLINK-1584","REV_AT_EPOCH":"7694","MEAN_MOTION_DDOT":"0.0000000000000","PERIOD":"95.592","TLE_LINE1":"1 46044U 20055T   21355.79027352  .00000130  00000-0  27656-4 0  9995","OBJECT_TYPE":"PAYLOAD","REF_FRAME":"TEME","EPHEMERIS_TYPE":"0","ELEMENT_SET_NO":"999","NORAD_CAT_ID":"46044","PERIAPSIS":"545.366","OBJECT_ID":"2020-055T","MEAN_MOTION":"15.06402515","ARG_OF_PERICENTER":"80.1433","GP_ID":"192175887","MEAN_ELEMENT_THEORY":"SGP4","EPOCH":"2021-12-21T18:57:59.632128","SITE":"AFETR","TLE_LINE2":"2 46044  53.0536 195.0047 0002656  80.1433 279.9855 15.06402515 76946","MEAN_ANOMALY":"279.9855","COUNTRY_CODE":"US","CLASSIFICATION_TYPE":"U","FILE":"3246784","SEMIMAJOR_AXIS":"6925.341","ECCENTRICITY":"0.00026560"},{"FILE":"3246784","SEMIMAJOR_AXIS":"6925.355","CLASSIFICATION_TYPE":"U","ECCENTRICITY":"0.00026940","COUNTRY_CODE":"US","EPOCH":"2021-12-21T20:49:27.891552","MEAN_ELEMENT_THEORY":"SGP4","ARG_OF_PERICENTER":"79.4882","GP_ID":"192176636","MEAN_ANOMALY":"280.6411","TLE_LINE2":"2 46045  53.0520 194.6622 0002694  79.4882 280.6411 15.06397819 76931","SITE":"AFETR","ELEMENT_SET_NO":"999","EPHEMERIS_TYPE":"0","OBJECT_ID":"2020-055U","MEAN_MOTION":"15.06397819","NORAD_CAT_ID":"46045","PERIAPSIS":"545.355","TLE_LINE1":"1 46045U 20055U   21355.86768393  .00001244  00000-0  10243-3 0  9991","MEAN_MOTION_DDOT":"0.0000000000000","PERIOD":"95.592","OBJECT_TYPE":"PAYLOAD","REF_FRAME":"TEME","DECAY_DATE":null,"OBJECT_NAME":"STARLINK-1591","REV_AT_EPOCH":"7693","RCS_SIZE":"LARGE","RA_OF_ASC_NODE":"194.6622","CENTER_NAME":"EARTH","APOAPSIS":"549.086","MEAN_MOTION_DOT":"0.00001244","BSTAR":"0.00010243000000","INCLINATION":"53.0520","TIME_SYSTEM":"UTC","LAUNCH_DATE":"2020-08-07"},{"MEAN_MOTION":"15.57030917","OBJECT_ID":"2020-055V","PERIAPSIS":"394.918","NORAD_CAT_ID":"46046","ELEMENT_SET_NO":"999","EPHEMERIS_TYPE":"0","MEAN_ANOMALY":"19.4711","TLE_LINE2":"2 46046  53.0543 156.2852 0001977 340.6225  19.4711 15.57030917 77451","SITE":"AFETR","MEAN_ELEMENT_THEORY":"SGP4","EPOCH":"2021-12-21T17:59:22.719264","GP_ID":"192176889","ARG_OF_PERICENTER":"340.6225","COUNTRY_CODE":"US","ECCENTRICITY":"0.00019770","SEMIMAJOR_AXIS":"6774.392","FILE":"3246784","CLASSIFICATION_TYPE":"U","INCLINATION":"53.0543","BSTAR":"0.00043732000000","LAUNCH_DATE":"2020-08-07","TIME_SYSTEM":"UTC","APOAPSIS":"397.597","MEAN_MOTION_DOT":"0.00031814","RCS_SIZE":"LARGE","CENTER_NAME":"EARTH","RA_OF_ASC_NODE":"156.2852","REV_AT_EPOCH":"7745","OBJECT_NAME":"STARLINK-1514","DECAY_DATE":null,"REF_FRAME":"TEME","OBJECT_TYPE":"PAYLOAD","TLE_LINE1":"1 46046U 20055V   21355.74956851  .00031814  00000-0  43732-3 0  9992","PERIOD":"92.484","MEAN_MOTION_DDOT":"0.0000000000000"},{"COUNTRY_CODE":"US","CLASSIFICATION_TYPE":"U","SEMIMAJOR_AXIS":"6925.370","FILE":"3246784","ECCENTRICITY":"0.00028120","EPHEMERIS_TYPE":"0","ELEMENT_SET_NO":"999","PERIAPSIS":"545.287","NORAD_CAT_ID":"46047","MEAN_MOTION":"15.06393035","OBJECT_ID":"2020-055W","GP_ID":"192176137","ARG_OF_PERICENTER":"81.2908","MEAN_ELEMENT_THEORY":"SGP4","EPOCH":"2021-12-21T19:41:47.458752","SITE":"AFETR","TLE_LINE2":"2 46047  53.0541 184.8835 0002812  81.2908 278.8399 15.06393035 77082","MEAN_ANOMALY":"278.8399","DECAY_DATE":null,"REV_AT_EPOCH":"7708","OBJECT_NAME":"STARLINK-1524","PERIOD":"95.593","MEAN_MOTION_DDOT":"0.0000000000000","TLE_LINE1":"1 46047U 20055W   21355.82068818 -.00000599  00000-0 -21273-4 0  9994","REF_FRAME":"TEME","OBJECT_TYPE":"PAYLOAD","LAUNCH_DATE":"2020-08-07","TIME_SYSTEM":"UTC","INCLINATION":"53.0541","BSTAR":"-0.00002127300000","CENTER_NAME":"EARTH","RA_OF_ASC_NODE":"184.8835","RCS_SIZE":"LARGE","MEAN_MOTION_DOT":"-0.00000599","APOAPSIS":"549.182"}];
